NORAD_CAT_ID,OBJECT_NAME,OBJECT_TYPE,EPOCH,MEAN_MOTION,ECCENTRICITY,INCLINATION,RA_OF_ASC_NODE,ARG_OF_PERICENTER,MEAN_ANOMALY,BSTAR,MEAN_MOTION_DOT,MEAN_MOTION_DDOT,TLE_LINE0,TLE_LINE1,TLE_LINE2,SEMIMAJOR_AXIS,PERIOD,APOGEE,PERIGEE,DECAYED
51769.0,STARLINK-3621,PAYLOAD,2022-12-22 16:48:46,15.08846681,0.0002412,53.2171,204.8849,31.0006,329.1128,9.115e-08,-2.87e-06,0.0,0 STARLINK-3621,1 51769U 22017B   22356.70053627 -.00000287  00000-0  91150-7 0  9999,2 51769  53.2171 204.8849 0002412  31.0006 329.1128 15.08846681 45522,6917.86,95.437,541.394,538.056,0.0
51769.0,STARLINK-3621,PAYLOAD,2022-12-23 08:42:37,15.08844109,0.0002431,53.217,201.9114,32.9413,327.173,0.0001281,1.751e-05,0.0,0 STARLINK-3621,1 51769U 22017B   22357.36293169  .00001751  00000-0  12810-3 0  9997,2 51769  53.2170 201.9114 0002431  32.9413 327.1730 15.08844109 45628,6917.868,95.437,541.415,538.0509999999998,0.0
51769.0,STARLINK-3621,PAYLOAD,2022-12-23 19:50:20,15.08833925,0.0002383,53.217,199.8296,33.8066,326.3077,2.5319e-05,1.15e-06,0.0,0 STARLINK-3621,1 51769U 22017B   22357.82662207  .00000115  00000-0  25319-4 0  9993,2 51769  53.2170 199.8296 0002383  33.8066 326.3077 15.08833925 45690,6917.899,95.438,541.4119999999998,538.115,0.0
51769.0,STARLINK-3621,PAYLOAD,2022-12-23 23:01:06,15.08836554,0.0002418,53.2169,199.235,34.2654,325.8494,2.2364e-05,6.8e-07,0.0,0 STARLINK-3621,1 51769U 22017B   22357.95910085  .00000068  00000-0  22364-4 0  9991,2 51769  53.2169 199.2350 0002418  34.2654 325.8494 15.08836554 47162,6917.891,95.438,541.429,538.0830000000002,0.0
51769.0,STARLINK-3621,PAYLOAD,2022-12-24 08:33:24,15.08839658,0.0002449,53.2169,197.4506,34.496,325.6191,1.7793e-05,-5e-08,0.0,0 STARLINK-3621,1 51769U 22017B   22358.35653906 -.00000005  00000-0  17793-4 0  9994,2 51769  53.2169 197.4506 0002449  34.4960 325.6191 15.08839658 45776,6917.880999999999,95.438,541.441,538.052,0.0
51769.0,STARLINK-3621,PAYLOAD,2022-12-24 19:41:06,15.08840634,0.0002555,53.217,195.3689,29.464,330.6496,4.2317e-05,3.85e-06,0.0,0 STARLINK-3621,1 51769U 22017B   22358.82021699  .00000385  00000-0  42317-4 0  9994,2 51769  53.2170 195.3689 0002555  29.4640 330.6496 15.08840634 45842,6917.878000000002,95.438,541.511,537.976,0.0
51769.0,STARLINK-3621,PAYLOAD,2022-12-25 06:48:48,15.08848468,0.0002494,53.2169,193.2876,36.1609,323.9551,2.5108e-06,-2.48e-06,0.0,0 STARLINK-3621,1 51769U 22017B   22359.28389129 -.00000248  00000-0  25108-5 0  9999,2 51769  53.2169 193.2876 0002494  36.1609 323.9551 15.08848468 47366,6917.855,95.437,541.445,537.994,0.0
51769.0,STARLINK-3621,PAYLOAD,2022-12-25 08:24:11,15.08848656,0.0002496,53.217,192.9901,36.2271,323.8889,4.4587e-06,-2.17e-06,0.0,0 STARLINK-3621,1 51769U 22017B   22359.35013070 -.00000217  00000-0  44587-5 0  9994,2 51769  53.2170 192.9901 0002496  36.2271 323.8889 15.08848656 45923,6917.854,95.437,541.446,537.992,0.0
51769.0,STARLINK-3621,PAYLOAD,2022-12-25 19:31:53,15.08844275,0.0002568,53.217,190.9091,35.9445,324.172,8.8089e-05,1.114e-05,0.0,0 STARLINK-3621,1 51769U 22017B   22359.81380908  .00001114  00000-0  88089-4 0  9992,2 51769  53.2170 190.9091 0002568  35.9445 324.1720 15.08844275 45998,6917.8669999999975,95.437,541.509,537.956,0.0
51769.0,STARLINK-3621,PAYLOAD,2022-12-26 19:22:40,15.08837276,0.00026,53.2168,186.4484,38.4866,321.6311,-1.3764e-05,-5.08e-06,0.0,0 STARLINK-3621,1 51769U 22017B   22360.80741677 -.00000508  00000-0 -13764-4 0  9993,2 51769  53.2168 186.4484 0002600  38.4866 321.6311 15.08837276 47592,6917.889,95.438,541.552,537.955,0.0
51769.0,STARLINK-3621,PAYLOAD,2022-12-27 12:51:55,15.08840658,0.0002634,53.2169,183.1775,39.0135,321.1047,-1.9382e-05,-5.97e-06,0.0,0 STARLINK-3621,1 51769U 22017B   22361.53605494 -.00000597  00000-0 -19382-4 0  9990,2 51769  53.2169 183.1775 0002634  39.0135 321.1047 15.08840658 46254,6917.878000000002,95.438,541.566,537.9209999999998,0.0
51769.0,STARLINK-3621,PAYLOAD,2022-12-27 16:02:41,15.08840636,0.0002642,53.2168,182.5826,39.3974,320.721,-1.7326e-05,-5.64e-06,0.0,0 STARLINK-3621,1 51769U 22017B   22361.66853479 -.00000564  00000-0 -17326-4 0  9992,2 51769  53.2168 182.5826 0002642  39.3974 320.7210 15.08840636 46271,6917.878000000002,95.438,541.571,537.9159999999998,0.0
51769.0,STARLINK-3621,PAYLOAD,2022-12-27 19:13:27,15.08842828,0.0002652,53.217,181.9877,38.6018,321.5164,-4.8185000000000005e-06,-3.65e-06,0.0,0 STARLINK-3621,1 51769U 22017B   22361.80101287 -.00000365  00000-0 -48185-5 0  9998,2 51769  53.2170 181.9877 0002652  38.6018 321.5164 15.08842828 46299,6917.871999999999,95.437,541.571,537.9019999999998,0.0
51769.0,STARLINK-3621,PAYLOAD,2022-12-28 14:18:05,15.08837507,0.0002686999999999,53.2169,178.4189,38.5928,321.5256,5.3657e-05,5.66e-06,0.0,0 STARLINK-3621,1 51769U 22017B   22362.59589385  .00000566  00000-0  53657-4 0  9994,2 51769  53.2169 178.4189 0002687  38.5928 321.5256 15.08837507 47865,6917.888000000001,95.438,541.612,537.894,0.0
51769.0,STARLINK-3621,PAYLOAD,2022-12-29 04:36:34,15.08829047,0.0002746,53.2172,175.7424,39.1754,320.9436,-1.882e-05,-5.88e-06,0.0,0 STARLINK-3621,1 51769U 22017B   22363.19206440 -.00000588  00000-0 -18820-4 0  9998,2 51769  53.2172 175.7424 0002746  39.1754 320.9436 15.08829047 47954,6917.9140000000025,95.438,541.679,537.879,0.0
51769.0,STARLINK-3621,PAYLOAD,2022-12-29 12:33:29,15.08835413,0.0002743,53.2174,174.2553,38.6425,321.4763,-2.1975e-05,-6.38e-06,0.0,0 STARLINK-3621,1 51769U 22017B   22363.52326225 -.00000638  00000-0 -21975-4 0  9990,2 51769  53.2174 174.2553 0002743  38.6425 321.4763 15.08835413 46557,6917.894,95.438,541.6569999999998,537.862,0.0
51769.0,STARLINK-3621,PAYLOAD,2022-12-29 20:30:25,15.08837801,0.0002698,53.2177,172.7683,39.4641,320.6548,-4.9867e-06,-3.68e-06,0.0,0 STARLINK-3621,1 51769U 22017B   22363.85446073 -.00000368  00000-0 -49867-5 0  9991,2 51769  53.2177 172.7683 0002698  39.4641 320.6548 15.08837801 48057,6917.887,95.438,541.619,537.886,0.0
51769.0,STARLINK-3621,PAYLOAD,2022-12-30 12:24:16,15.08837142,0.0002636,53.2173,169.7963,39.3008,320.8175,0.00010749,1.423e-05,0.0,0 STARLINK-3621,1 51769U 22017B   22364.51685681  .00001423  00000-0  10749-3 0  9991,2 51769  53.2173 169.7963 0002636  39.3008 320.8175 15.08837142 46704,6917.889,95.438,541.578,537.931,0.0
51769.0,STARLINK-3621,PAYLOAD,2022-12-30 20:21:11,15.08843878,0.0002686,53.2174,168.3092,40.3679,319.7512,0.00015458,2.173e-05,0.0,0 STARLINK-3621,1 51769U 22017B   22364.84805202  .00002173  00000-0  15458-3 0  9995,2 51769  53.2174 168.3092 0002686  40.3679 319.7512 15.08843878 48206,6917.869000000002,95.437,541.592,537.875,0.0
51769.0,STARLINK-3621,PAYLOAD,2022-12-31 10:39:39,15.08847137,0.0002647,53.2168,165.6339,41.1627,318.9564,0.00013503,1.862e-05,0.0,0 STARLINK-3621,1 51769U 22017B   22365.44420820  .00001862  00000-0  13503-3 0  9994,2 51769  53.2168 165.6339 0002647  41.1627 318.9564 15.08847137 46840,6917.859,95.437,541.555,537.8919999999998,0.0
51769.0,STARLINK-3621,PAYLOAD,2022-12-31 17:01:12,15.08843326,0.0002701,53.2175,164.4434,42.9166,317.2036,9.5987e-05,1.24e-05,0.0,0 STARLINK-3621,1 51769U 22017B   22365.70917135  .00001240  00000-0  95987-4 0  9990,2 51769  53.2175 164.4434 0002701  42.9166 317.2036 15.08843326 46885,6917.87,95.437,541.604,537.867,0.0
51769.0,STARLINK-3621,PAYLOAD,2023-01-01 04:08:54,15.08844958,0.0002615,53.2172,162.3615,44.1996,315.9204,4.6116e-05,4.46e-06,0.0,0 STARLINK-3621,1 51769U 22017B   23001.17284992  .00000446  00000-0  46116-4 0  9994,2 51769  53.2172 162.3615 0002615  44.1996 315.9204 15.08844958 48403,6917.865,95.437,541.539,537.9209999999998,0.0
51769.0,STARLINK-3621,PAYLOAD,2023-01-01 13:41:13,15.08843372,0.0002602,53.2173,160.5766,46.6828,313.438,-4.4863e-05,-1.003e-05,0.0,0 STARLINK-3621,1 51769U 22017B   23001.57029271 -.00001003  00000-0 -44863-4 0  9994,2 51769  53.2173 160.5766 0002602  46.6828 313.4380 15.08843372 47011,6917.87,95.437,541.535,537.935,0.0
51769.0,STARLINK-3621,PAYLOAD,2023-01-01 16:51:59,15.08846028,0.0002634999999999,53.2167,159.9824,40.5576,319.5612,-3.7136e-05,-8.8e-06,0.0,0 STARLINK-3621,1 51769U 22017B   23001.70277026 -.00000880  00000-0 -37136-4 0  9999,2 51769  53.2167 159.9824 0002635  40.5576 319.5612 15.08846028 47038,6917.861999999999,95.437,541.55,537.904,0.0
51769.0,STARLINK-3621,PAYLOAD,2023-01-02 03:59:42,15.08835697,0.0002546999999999,53.2178,157.9018,39.2188,320.8988,-0.00013339,-2.411e-05,0.0,0 STARLINK-3621,1 51769U 22017B   23002.16645950 -.00002411  00000-0 -13339-3 0  9995,2 51769  53.2178 157.9018 0002547  39.2188 320.8988 15.08835697 48558,6917.894,95.438,541.521,537.997,0.0
51769.0,STARLINK-3621,PAYLOAD,2023-01-02 13:32:00,15.08841566,0.0002655,53.2173,156.11700000000005,44.3637,315.7568,-1.5957e-06,-3.14e-06,0.0,0 STARLINK-3621,1 51769U 22017B   23002.56389268 -.00000314  00000-0 -15957-5 0  9996,2 51769  53.2173 156.1170 0002655  44.3637 315.7568 15.08841566 48615,6917.876,95.437,541.577,537.904,0.0
51769.0,STARLINK-3621,PAYLOAD,2023-01-02 15:07:23,15.08841807,0.0002708999999999,53.2172,155.8209,40.6889,319.4305,8.514500000000001e-06,-1.53e-06,0.0,0 STARLINK-3621,1 51769U 22017B   23002.63013234 -.00000153  00000-0  85145-5 0  9997,2 51769  53.2172 155.8209 0002709  40.6889 319.4305 15.08841807 47179,6917.875,95.437,541.614,537.866,0.0
51769.0,STARLINK-3621,PAYLOAD,2023-01-02 16:42:46,15.08843268,0.0002712,53.2171,155.5235,41.1292,318.9904,4.3043e-05,3.97e-06,0.0,0 STARLINK-3621,1 51769U 22017B   23002.69636998  .00000397  00000-0  43043-4 0  9990,2 51769  53.2171 155.5235 0002712  41.1292 318.9904 15.08843268 47185,6917.87,95.437,541.612,537.859,0.0
51769.0,STARLINK-3621,PAYLOAD,2023-01-03 16:33:33,15.08838323,0.0002747,53.2173,151.0631,40.0866,320.0328,7.0113e-05,8.27e-06,0.0,0 STARLINK-3621,1 51769U 22017B   23003.68997300  .00000827  00000-0  70113-4 0  9993,2 51769  53.2173 151.0631 0002747  40.0866 320.0328 15.08838323 48788,6917.886,95.438,541.651,537.85,0.0
